ISS OBJECT YE           
1 67688U 98067YE  26063.50513603  .00064836  00000+0  10599-2 0  9997
2 67688  51.6315  97.5383 0007786 134.7310 225.4314 15.51890022  3906
CREW DRAGON 12          
1 67796U 26031A   26064.25394533  .00008604  00000+0  16717-3 0  9991
2 67796  51.6314  94.2866 0008160 158.8383 201.2944 15.48454548555569
